{
  "type": "FeatureCollection",
  "features": [
    {
      "type": "Feature",
      "properties": {
        "category": "landUse",
        "name": "Copenhagen urban core",
        "land_use": "Urban / built-up",
        "context": "Dense metropolitan waterfront and transport fabric",
        "source_name": "OpenStreetMap-aligned land-use context",
        "source_url": "https://www.openstreetmap.org/",
        "license": "ODbL / curated prototype bundle"
      },
      "geometry": {
        "type": "Polygon",
        "coordinates": [[[12.44,55.61],[12.74,55.61],[12.79,55.74],[12.58,55.8],[12.43,55.74],[12.44,55.61]]]
      }
    },
    {
      "type": "Feature",
      "properties": {
        "category": "landUse",
        "name": "West Zealand agriculture",
        "land_use": "Agriculture",
        "context": "Open farmland and productive coastal hinterland",
        "source_name": "OpenStreetMap-aligned land-use context",
        "source_url": "https://www.openstreetmap.org/",
        "license": "ODbL / curated prototype bundle"
      },
      "geometry": {
        "type": "Polygon",
        "coordinates": [[[11.2,55.25],[12.1,55.25],[12.2,55.7],[11.95,56.0],[11.15,55.8],[11.2,55.25]]]
      }
    },
    {
      "type": "Feature",
      "properties": {
        "category": "landUse",
        "name": "North Zealand forest belt",
        "land_use": "Forest",
        "context": "Large coastal woodland and recreation landscape",
        "source_name": "OpenStreetMap-aligned land-use context",
        "source_url": "https://www.openstreetmap.org/",
        "license": "ODbL / curated prototype bundle"
      },
      "geometry": {
        "type": "Polygon",
        "coordinates": [[[12.18,55.95],[12.72,55.95],[12.86,56.14],[12.32,56.18],[12.18,55.95]]]
      }
    },
    {
      "type": "Feature",
      "properties": {
        "category": "landUse",
        "name": "Amager wetlands",
        "land_use": "Wetlands / natural areas",
        "context": "Protected coastal meadows, wetlands and lagoons",
        "source_name": "OpenStreetMap-aligned land-use context",
        "source_url": "https://www.openstreetmap.org/",
        "license": "ODbL / curated prototype bundle"
      },
      "geometry": {
        "type": "Polygon",
        "coordinates": [[[12.58,55.54],[12.8,55.54],[12.9,55.66],[12.72,55.72],[12.57,55.66],[12.58,55.54]]]
      }
    },
    {
      "type": "Feature",
      "properties": {
        "category": "landUse",
        "name": "Harbour industry belt",
        "land_use": "Industrial areas",
        "context": "Port logistics, energy and heavy waterfront uses",
        "source_name": "OpenStreetMap-aligned land-use context",
        "source_url": "https://www.openstreetmap.org/",
        "license": "ODbL / curated prototype bundle"
      },
      "geometry": {
        "type": "Polygon",
        "coordinates": [[[12.46,55.61],[12.61,55.61],[12.64,55.69],[12.51,55.71],[12.46,55.61]]]
      }
    }
  ]
}
