{
  "type": "FeatureCollection",
  "features": [
    {
      "type": "Feature",
      "properties": {
        "category": "pipelines",
        "name": "Balticconnector",
        "type": "Gas pipeline",
        "connection": "Finland - Estonia",
        "status": "Operating",
        "source_name": "Baltic offshore pipeline references",
        "source_url": "https://emodnet.ec.europa.eu/",
        "license": "Public reference data / curated prototype bundle"
      },
      "geometry": { "type": "LineString", "coordinates": [[24.87,60.05],[24.65,59.82],[24.48,59.66],[24.28,59.52]] }
    },
    {
      "type": "Feature",
      "properties": {
        "category": "pipelines",
        "name": "Nord Stream corridor",
        "type": "Offshore gas pipeline corridor",
        "connection": "Russia - Germany",
        "status": "Built corridor",
        "source_name": "Baltic offshore pipeline references",
        "source_url": "https://emodnet.ec.europa.eu/",
        "license": "Public reference data / curated prototype bundle"
      },
      "geometry": { "type": "LineString", "coordinates": [[28.15,60.0],[24.8,59.6],[20.4,58.6],[16.2,56.7],[13.8,55.0]] }
    }
  ]
}
